{"type": "FeatureCollection", "features": [ {"type": "Feature", "properties": {"norad_id": 39019, "name": "PLEIADES 1B", "group": "resource", "lat": 57.17793355585515, "lon": -97.15193023373534, "alt_km": 691.6672827161683, "timestamp": "2025-12-23T11:34:47.838934+00:00", "meta": {"OBJECT_NAME": "PLEIADES 1B", "OBJECT_ID": "2012-068A", "EPOCH": "2025-12-23T04:26:15.538848", "MEAN_MOTION": 14.58561671, "ECCENTRICITY": 0.0001153, "INCLINATION": 98.1786, "RA_OF_ASC_NODE": 69.6717, "ARG_OF_PERICENTER": 86.3472, "MEAN_ANOMALY": 273.7859, "EPHEMERIS_TYPE": 0, "CLASSIFICATION_TYPE": "U", "NORAD_CAT_ID": 39019, "ELEMENT_SET_NO": 999, "REV_AT_EPOCH": 69519, "BSTAR": 8.201e-05, "MEAN_MOTION_DOT": 3.36e-06, "MEAN_MOTION_DDOT": 0}, "tle": {"line1": "1 39019U 12068A   25357.18490207  .00000336  00000+0  82010-4 0  9998", "line2": "2 39019  98.1786  69.6717 0001153  86.3472 273.7859 14.58561671695194"}}, "geometry": {"type": "Point", "coordinates": [-97.15193023373534, 57.17793355585515]}}, {"type": "Feature", "properties": {"norad_id": 39030, "name": "GOKTURK 2", "group": "resource", "lat": -79.79980952930637, "lon": -30.050107009507567, "alt_km": 652.4236061594556, "timestamp": "2025-12-23T11:34:47.838943+00:00", "meta": {"OBJECT_NAME": "GOKTURK 2", "OBJECT_ID": "2012-073A", "EPOCH": "2025-12-23T03:52:44.791392", "MEAN_MOTION": 14.75304221, "ECCENTRICITY": 0.000136, "INCLINATION": 97.6883, "RA_OF_ASC_NODE": 198.3023, "ARG_OF_PERICENTER": 106.6409, "MEAN_ANOMALY": 253.495, "EPHEMERIS_TYPE": 0, "CLASSIFICATION_TYPE": "U", "NORAD_CAT_ID": 39030, "ELEMENT_SET_NO": 999, "REV_AT_EPOCH": 69855, "BSTAR": 7.3225e-05, "MEAN_MOTION_DOT": 4.49e-06, "MEAN_MOTION_DDOT": 0}, "tle": {"line1": "1 39030U 12073A   25357.16162953  .00000449  00000+0  73225-4 0  9992", "line2": "2 39030  97.6883 198.3023 0001360 106.6409 253.4950 14.75304221698550"}}, "geometry": {"type": "Point", "coordinates": [-30.050107009507567, -79.79980952930637]}}, {"type": "Feature", "properties": {"norad_id": 39084, "name": "LANDSAT 8", "group": "resource", "lat": -55.31288794159562, "lon": -126.63758162844861, "alt_km": 710.1624305876485, "timestamp": "2025-12-23T11:34:47.838952+00:00", "meta": {"OBJECT_NAME": "LANDSAT 8", "OBJECT_ID": "2013-008A", "EPOCH": "2025-12-23T03:54:26.747712", "MEAN_MOTION": 14.5711285, "ECCENTRICITY": 0.0001063, "INCLINATION": 98.2058, "RA_OF_ASC_NODE": 65.0818, "ARG_OF_PERICENTER": 92.206, "MEAN_ANOMALY": 267.926, "EPHEMERIS_TYPE": 0, "CLASSIFICATION_TYPE": "U", "NORAD_CAT_ID": 39084, "ELEMENT_SET_NO": 999, "REV_AT_EPOCH": 67226, "BSTAR": 0.00010478, "MEAN_MOTION_DOT": 4.27e-06, "MEAN_MOTION_DDOT": 0}, "tle": {"line1": "1 39084U 13008A   25357.16280958  .00000427  00000+0  10478-3 0  9992", "line2": "2 39084  98.2058  65.0818 0001063  92.2060 267.9260 14.57112850672264"}}, "geometry": {"type": "Point", "coordinates": [-126.63758162844861, -55.31288794159562]}}, {"type": "Feature", "properties": {"norad_id": 39086, "name": "SARAL", "group": "resource", "lat": 1.330799913765334, "lon": -178.92772310160248, "alt_km": 785.157244536279, "timestamp": "2025-12-23T11:34:47.838962+00:00", "meta": {"OBJECT_NAME": "SARAL", "OBJECT_ID": "2013-009A", "EPOCH": "2025-12-23T03:11:36.422880", "MEAN_MOTION": 14.32760492, "ECCENTRICITY": 0.0002964, "INCLINATION": 98.5503, "RA_OF_ASC_NODE": 180.9278, "ARG_OF_PERICENTER": 89.2074, "MEAN_ANOMALY": 270.945, "EPHEMERIS_TYPE": 0, "CLASSIFICATION_TYPE": "U", "NORAD_CAT_ID": 39086, "ELEMENT_SET_NO": 999, "REV_AT_EPOCH": 67039, "BSTAR": 5.8046e-05, "MEAN_MOTION_DOT": 1.14e-06, "MEAN_MOTION_DDOT": 0}, "tle": {"line1": "1 39086U 13009A   25357.13306045  .00000114  00000+0  58046-4 0  9995", "line2": "2 39086  98.5503 180.9278 0002964  89.2074 270.9450 14.32760492670394"}}, "geometry": {"type": "Point", "coordinates": [-178.92772310160248, 1.330799913765334]}}, {"type": "Feature", "properties": {"norad_id": 39150, "name": "GAOFEN-1", "group": "resource", "lat": 28.088204246992927, "lon": 63.68433093423272, "alt_km": 637.3514792728611, "timestamp": "2025-12-23T11:34:47.838971+00:00", "meta": {"OBJECT_NAME": "GAOFEN-1", "OBJECT_ID": "2013-018A", "EPOCH": "2025-12-23T04:56:45.324960", "MEAN_MOTION": 14.7649551, "ECCENTRICITY": 0.001847, "INCLINATION": 97.9318, "RA_OF_ASC_NODE": 67.68, "ARG_OF_PERICENTER": 111.2553, "MEAN_ANOMALY": 249.0631, "EPHEMERIS_TYPE": 0, "CLASSIFICATION_TYPE": "U", "NORAD_CAT_ID": 39150, "ELEMENT_SET_NO": 999, "REV_AT_EPOCH": 68227, "BSTAR": 4.8622e-05, "MEAN_MOTION_DOT": 2.88e-06, "MEAN_MOTION_DDOT": 0}, "tle": {"line1": "1 39150U 13018A   25357.20608015  .00000288  00000+0  48622-4 0  9998", "line2": "2 39150  97.9318  67.6800 0018470 111.2553 249.0631 14.76495510682274"}}, "geometry": {"type": "Point", "coordinates": [63.68433093423272, 28.088204246992927]}}, {"type": "Feature", "properties": {"norad_id": 39160, "name": "VNREDSAT 1", "group": "resource", "lat": 3.448266357517496, "lon": 51.89892567226438, "alt_km": 679.6538909919873, "timestamp": "2025-12-23T11:34:47.838980+00:00", "meta": {"OBJECT_NAME": "VNREDSAT 1", "OBJECT_ID": "2013-021B", "EPOCH": "2025-12-23T03:22:03.768960", "MEAN_MOTION": 14.64937583, "ECCENTRICITY": 0.000117, "INCLINATION": 97.9359, "RA_OF_ASC_NODE": 52.0504, "ARG_OF_PERICENTER": 83.5999, "MEAN_ANOMALY": 276.5338, "EPHEMERIS_TYPE": 0, "CLASSIFICATION_TYPE": "U", "NORAD_CAT_ID": 39160, "ELEMENT_SET_NO": 999, "REV_AT_EPOCH": 67451, "BSTAR": 0.00014097, "MEAN_MOTION_DOT": 7.09e-06, "MEAN_MOTION_DDOT": 0}, "tle": {"line1": "1 39160U 13021B   25357.14032140  .00000709  00000+0  14097-3 0  9992", "line2": "2 39160  97.9359  52.0504 0001170  83.5999 276.5338 14.64937583674518"}}, "geometry": {"type": "Point", "coordinates": [51.89892567226438, 3.448266357517496]}}, {"type": "Feature", "properties": {"norad_id": 39227, "name": "ARIRANG-5 (KOMPSAT-5)", "group": "resource", "lat": 8.972834248809237, "lon": 2.8446532150069097, "alt_km": 556.4229166601217, "timestamp": "2025-12-23T11:34:47.838989+00:00", "meta": {"OBJECT_NAME": "ARIRANG-5 (KOMPSAT-5)", "OBJECT_ID": "2013-042A", "EPOCH": "2025-12-23T06:02:04.282944", "MEAN_MOTION": 15.04474748, "ECCENTRICITY": 0.0003018, "INCLINATION": 97.6168, "RA_OF_ASC_NODE": 181.4062, "ARG_OF_PERICENTER": 36.2786, "MEAN_ANOMALY": 323.8644, "EPHEMERIS_TYPE": 0, "CLASSIFICATION_TYPE": "U", "NORAD_CAT_ID": 39227, "ELEMENT_SET_NO": 999, "REV_AT_EPOCH": 67740, "BSTAR": 0.00012892, "MEAN_MOTION_DOT": 1.743e-05, "MEAN_MOTION_DDOT": 0}, "tle": {"line1": "1 39227U 13042A   25357.25143846  .00001743  00000+0  12892-3 0  9997", "line2": "2 39227  97.6168 181.4062 0003018  36.2786 323.8644 15.04474748677406"}}, "geometry": {"type": "Point", "coordinates": [2.8446532150069097, 8.972834248809237]}}, {"type": "Feature", "properties": {"norad_id": 39418, "name": "SKYSAT-A", "group": "resource", "lat": 78.90060520064509, "lon": -91.0843079005073, "alt_km": 526.1844931140231, "timestamp": "2025-12-23T11:34:47.838998+00:00", "meta": {"OBJECT_NAME": "SKYSAT-A", "OBJECT_ID": "2013-066C", "EPOCH": "2025-12-23T01:36:48.734208", "MEAN_MOTION": 15.11675719, "ECCENTRICITY": 0.0021461, "INCLINATION": 97.4089, "RA_OF_ASC_NODE": 46.9617, "ARG_OF_PERICENTER": 199.2559, "MEAN_ANOMALY": 160.7863, "EPHEMERIS_TYPE": 0, "CLASSIFICATION_TYPE": "U", "NORAD_CAT_ID": 39418, "ELEMENT_SET_NO": 999, "REV_AT_EPOCH": 66186, "BSTAR": 0.00021237, "MEAN_MOTION_DOT": 3.569e-05, "MEAN_MOTION_DDOT": 0}, "tle": {"line1": "1 39418U 13066C   25357.06723072  .00003569  00000+0  21237-3 0  9990", "line2": "2 39418  97.4089  46.9617 0021461 199.2559 160.7863 15.11675719661862"}}, "geometry": {"type": "Point", "coordinates": [-91.0843079005073, 78.90060520064509]}}, {"type": "Feature", "properties": {"norad_id": 39419, "name": "DUBAISAT-2", "group": "resource", "lat": 63.287596711397406, "lon": -177.3792737346594, "alt_km": 541.4381188098614, "timestamp": "2025-12-23T11:34:47.839007+00:00", "meta": {"OBJECT_NAME": "DUBAISAT-2", "OBJECT_ID": "2013-066D", "EPOCH": "2025-12-23T04:42:00.450720", "MEAN_MOTION": 15.08450127, "ECCENTRICITY": 0.0010019, "INCLINATION": 97.4451, "RA_OF_ASC_NODE": 347.2809, "ARG_OF_PERICENTER": 280.4227, "MEAN_ANOMALY": 79.5873, "EPHEMERIS_TYPE": 0, "CLASSIFICATION_TYPE": "U", "NORAD_CAT_ID": 39419, "ELEMENT_SET_NO": 999, "REV_AT_EPOCH": 65984, "BSTAR": 0.00033219, "MEAN_MOTION_DOT": 5.118e-05, "MEAN_MOTION_DDOT": 0}, "tle": {"line1": "1 39419U 13066D   25357.19583855  .00005118  00000+0  33219-3 0  9993", "line2": "2 39419  97.4451 347.2809 0010019 280.4227  79.5873 15.08450127659841"}}, "geometry": {"type": "Point", "coordinates": [-177.3792737346594, 63.287596711397406]}}, {"type": "Feature", "properties": {"norad_id": 39574, "name": "GPM-CORE", "group": "resource", "lat": -52.71063538620819, "lon": 34.55442154204549, "alt_km": 432.24015384866016, "timestamp": "2025-12-23T11:34:47.839016+00:00", "meta": {"OBJECT_NAME": "GPM-CORE", "OBJECT_ID": "2014-009C", "EPOCH": "2025-12-23T01:12:53.161056", "MEAN_MOTION": 15.44616492, "ECCENTRICITY": 0.0009227, "INCLINATION": 64.9722, "RA_OF_ASC_NODE": 178.1525, "ARG_OF_PERICENTER": 249.5153, "MEAN_ANOMALY": 110.4998, "EPHEMERIS_TYPE": 0, "CLASSIFICATION_TYPE": "U", "NORAD_CAT_ID": 39574, "ELEMENT_SET_NO": 999, "REV_AT_EPOCH": 67060, "BSTAR": 0.00019311, "MEAN_MOTION_DOT": 8.805e-05, "MEAN_MOTION_DDOT": 0}, "tle": {"line1": "1 39574U 14009C   25357.05061529  .00008805  00000+0  19311-3 0  9990", "line2": "2 39574  64.9722 178.1525 0009227 249.5153 110.4998 15.44616492670601"}}, "geometry": {"type": "Point", "coordinates": [34.55442154204549, -52.71063538620819]}}]}